ONEWEB-0387             
1 49313U 21090AL  25206.93064581 -.00000001  00000+0 -35032-4 0  9992
2 49313  87.9274 339.4756 0001653 106.2184 253.9131 13.20770654188065
ONEWEB-0388             
1 49314U 21090AM  25207.47144120  .00000075  00000+0  15482-3 0  9996
2 49314  87.9227   9.7292 0001875  97.5697 262.5649 13.19727101184741
ONEWEB-0389             
1 50469U 21132A   25207.12880278  .00000023  00000+0  26991-4 0  9990
2 50469  87.9046  70.7690 0001494  96.1548 263.9754 13.17649699176432
ONEWEB-0390             
1 50470U 21132B   25207.35829617 -.00000006  00000+0 -49853-4 0  9992
2 50470  87.9042  70.7308 0001622  75.4248 284.7064 13.17649019176460
ONEWEB-0391             
1 50471U 21132C   25207.51185293  .00000025  00000+0  30255-4 0  9991
2 50471  87.9041  70.7148 0001002 101.9374 258.1870 13.17649524176482
ONEWEB-0392             
1 50472U 21132D   25207.54222826  .00000027  00000+0  35339-4 0  9999
2 50472  87.9038  70.6525 0001446  92.4511 267.6786 13.17649809176528
ONEWEB-0393             
1 50473U 21132E   25207.59130554 -.00000035  00000+0 -12417-3 0  9993
2 50473  87.9046  70.6610 0001595  86.4324 273.6990 13.17649170176528
ONEWEB-0394             
1 50474U 21132F   25207.05650059  .00000007  00000+0 -16174-4 0  9995
2 50474  87.9121  40.2249 0001741  93.5582 266.5749 13.18687398179882
